[{"OBJECT_NAME":"METEOSAT-11 (MSG-4)","OBJECT_ID":"2015-034A","EPOCH":"2026-03-05T22:35:58.527168","MEAN_MOTION":1.00266583,"ECCENTRICITY":0.0001804,"INCLINATION":2.9414,"RA_OF_ASC_NODE":71.6713,"ARG_OF_PERICENTER":270.8922,"MEAN_ANOMALY":169.4631,"EPHEMERIS_TYPE":0,"CLASSIFICATION_TYPE":"U","NORAD_CAT_ID":40732,"ELEMENT_SET_NO":999,"REV_AT_EPOCH":618,"BSTAR":0,"MEAN_MOTION_DOT":5.6e-7,"MEAN_MOTION_DDOT":0},{"OBJECT_NAME":"ELEKTRO-L 2","OBJECT_ID":"2015-074A","EPOCH":"2026-03-05T20:46:24.034944","MEAN_MOTION":1.00270971,"ECCENTRICITY":0.00033728,"INCLINATION":6.4347,"RA_OF_ASC_NODE":71.7955,"ARG_OF_PERICENTER":240.2032,"MEAN_ANOMALY":148.6824,"EPHEMERIS_TYPE":0,"CLASSIFICATION_TYPE":"U","NORAD_CAT_ID":41105,"ELEMENT_SET_NO":999,"REV_AT_EPOCH":3747,"BSTAR":0,"MEAN_MOTION_DOT":-1.22e-6,"MEAN_MOTION_DDOT":0},{"OBJECT_NAME":"INSAT-3DR","OBJECT_ID":"2016-054A","EPOCH":"2026-03-05T22:54:19.268352","MEAN_MOTION":1.0027262,"ECCENTRICITY":0.00131235,"INCLINATION":0.0513,"RA_OF_ASC_NODE":95.7056,"ARG_OF_PERICENTER":186.3264,"MEAN_ANOMALY":299.2099,"EPHEMERIS_TYPE":0,"CLASSIFICATION_TYPE":"U","NORAD_CAT_ID":41752,"ELEMENT_SET_NO":999,"REV_AT_EPOCH":3478,"BSTAR":0,"MEAN_MOTION_DOT":-8.3e-7,"MEAN_MOTION_DDOT":0},{"OBJECT_NAME":"HIMAWARI-9","OBJECT_ID":"2016-064A","EPOCH":"2026-03-05T23:13:24.936672","MEAN_MOTION":1.00271922,"ECCENTRICITY":0.000122,"INCLINATION":0.0139,"RA_OF_ASC_NODE":169.6721,"ARG_OF_PERICENTER":205.4287,"MEAN_ANOMALY":277.7232,"EPHEMERIS_TYPE":0,"CLASSIFICATION_TYPE":"U","NORAD_CAT_ID":41836,"ELEMENT_SET_NO":999,"REV_AT_EPOCH":3417,"BSTAR":0,"MEAN_MOTION_DOT":-2.81e-6,"MEAN_MOTION_DDOT":0},{"OBJECT_NAME":"GOES 16","OBJECT_ID":"2016-071A","EPOCH":"2026-03-05T22:03:24.151392","MEAN_MOTION":1.00271882,"ECCENTRICITY":0.00024314,"INCLINATION":0.1417,"RA_OF_ASC_NODE":89.5611,"ARG_OF_PERICENTER":221.0431,"MEAN_ANOMALY":79.1868,"EPHEMERIS_TYPE":0,"CLASSIFICATION_TYPE":"U","NORAD_CAT_ID":41866,"ELEMENT_SET_NO":999,"REV_AT_EPOCH":3406,"BSTAR":0,"MEAN_MOTION_DOT":-9.7e-7,"MEAN_MOTION_DDOT":0},{"OBJECT_NAME":"FENGYUN 4A","OBJECT_ID":"2016-077A","EPOCH":"2026-03-05T23:08:32.903808","MEAN_MOTION":1.00278576,"ECCENTRICITY":0.00073441,"INCLINATION":2.0601,"RA_OF_ASC_NODE":81.3975,"ARG_OF_PERICENTER":135.4318,"MEAN_ANOMALY":57.6029,"EPHEMERIS_TYPE":0,"CLASSIFICATION_TYPE":"U","NORAD_CAT_ID":41882,"ELEMENT_SET_NO":999,"REV_AT_EPOCH":3389,"BSTAR":0,"MEAN_MOTION_DOT":-3.62e-6,"MEAN_MOTION_DDOT":0},{"OBJECT_NAME":"CYGFM05","OBJECT_ID":"2016-078A","EPOCH":"2026-03-05T20:11:09.640320","MEAN_MOTION":15.51950959,"ECCENTRICITY":0.00071064,"INCLINATION":34.9571,"RA_OF_ASC_NODE":222.5928,"ARG_OF_PERICENTER":253.2636,"MEAN_ANOMALY":106.7307,"EPHEMERIS_TYPE":0,"CLASSIFICATION_TYPE":"U","NORAD_CAT_ID":41884,"ELEMENT_SET_NO":999,"REV_AT_EPOCH":51266,"BSTAR":0.00043897893,"MEAN_MOTION_DOT":0.00027282,"MEAN_MOTION_DDOT":0},{"OBJECT_NAME":"CYGFM04","OBJECT_ID":"2016-078B","EPOCH":"2026-03-05T16:56:56.075712","MEAN_MOTION":15.55346622,"ECCENTRICITY":0.00060879,"INCLINATION":34.9332,"RA_OF_ASC_NODE":195.6941,"ARG_OF_PERICENTER":285.4912,"MEAN_ANOMALY":74.5139,"EPHEMERIS_TYPE":0,"CLASSIFICATION_TYPE":"U","NORAD_CAT_ID":41885,"ELEMENT_SET_NO":999,"REV_AT_EPOCH":51284,"BSTAR":0.00047321961,"MEAN_MOTION_DOT":0.00033317,"MEAN_MOTION_DDOT":0},{"OBJECT_NAME":"CYGFM02","OBJECT_ID":"2016-078C","EPOCH":"2026-03-05T16:15:17.487936","MEAN_MOTION":15.57615372,"ECCENTRICITY":0.00071586,"INCLINATION":34.9415,"RA_OF_ASC_NODE":192.8729,"ARG_OF_PERICENTER":287.1456,"MEAN_ANOMALY":72.8484,"EPHEMERIS_TYPE":0,"CLASSIFICATION_TYPE":"U","NORAD_CAT_ID":41886,"ELEMENT_SET_NO":999,"REV_AT_EPOCH":51298,"BSTAR":0.00075308369,"MEAN_MOTION_DOT":0.00057935,"MEAN_MOTION_DDOT":0},{"OBJECT_NAME":"CYGFM01","OBJECT_ID":"2016-078D","EPOCH":"2026-03-05T20:51:52.175232","MEAN_MOTION":15.52390972,"ECCENTRICITY":0.00067693,"INCLINATION":34.9401,"RA_OF_ASC_NODE":224.2133,"ARG_OF_PERICENTER":245.327,"MEAN_ANOMALY":114.6748,"EPHEMERIS_TYPE":0,"CLASSIFICATION_TYPE":"U","NORAD_CAT_ID":41887,"ELEMENT_SET_NO":999,"REV_AT_EPOCH":51261,"BSTAR":0.00045416686,"MEAN_MOTION_DOT":0.00028684,"MEAN_MOTION_DDOT":0},{"OBJECT_NAME":"CYGFM08","OBJECT_ID":"2016-078E","EPOCH":"2026-03-05T17:23:26.643552","MEAN_MOTION":15.53865999,"ECCENTRICITY":0.00081912,"INCLINATION":34.9431,"RA_OF_ASC_NODE":207.0767,"ARG_OF_PERICENTER":268.5441,"MEAN_ANOMALY":91.4344,"EPHEMERIS_TYPE":0,"CLASSIFICATION_TYPE":"U","NORAD_CAT_ID":41888,"ELEMENT_SET_NO":999,"REV_AT_EPOCH":51283,"BSTAR":0.00047238658,"MEAN_MOTION_DOT":0.00031508,"MEAN_MOTION_DDOT":0},{"OBJECT_NAME":"CYGFM07","OBJECT_ID":"2016-078G","EPOCH":"2026-03-05T18:10:19.139808","MEAN_MOTION":15.54561714,"ECCENTRICITY":0.00066811,"INCLINATION":34.9456,"RA_OF_ASC_NODE":195.3351,"ARG_OF_PERICENTER":288.6098,"MEAN_ANOMALY":71.39,"EPHEMERIS_TYPE":0,"CLASSIFICATION_TYPE":"U","NORAD_CAT_ID":41890,"ELEMENT_SET_NO":999,"REV_AT_EPOCH":51286,"BSTAR":0.00047436008,"MEAN_MOTION_DOT":0.00032445,"MEAN_MOTION_DDOT":0},{"OBJECT_NAME":"CYGFM03","OBJECT_ID":"2016-078H","EPOCH":"2026-03-05T17:28:41.633760","MEAN_MOTION":15.54576853,"ECCENTRICITY":0.00059298,"INCLINATION":34.9409,"RA_OF_ASC_NODE":197.503,"ARG_OF_PERICENTER":274.4225,"MEAN_ANOMALY":85.5821,"EPHEMERIS_TYPE":0,"CLASSIFICATION_TYPE":"U","NORAD_CAT_ID":41891,"ELEMENT_SET_NO":999,"REV_AT_EPOCH":51283,"BSTAR":0.00046977784,"MEAN_MOTION_DOT":0.00032142,"MEAN_MOTION_DDOT":0},{"OBJECT_NAME":"FENGYUN 3D","OBJECT_ID":"2017-072A","EPOCH":"2026-03-05T23:18:48.828672","MEAN_MOTION":14.19714242,"ECCENTRICITY":0.00017381,"INCLINATION":99.0025,"RA_OF_ASC_NODE":37.5867,"ARG_OF_PERICENTER":20.4256,"MEAN_ANOMALY":339.6989,"EPHEMERIS_TYPE":0,"CLASSIFICATION_TYPE":"U","NORAD_CAT_ID":43010,"ELEMENT_SET_NO":999,"REV_AT_EPOCH":43034,"BSTAR":0.00015053108,"MEAN_MOTION_DOT":2.72e-6,"MEAN_MOTION_DDOT":0},{"OBJECT_NAME":"NOAA 20 (JPSS-1)","OBJECT_ID":"2017-073A","EPOCH":"2026-03-05T22:50:27.614400","MEAN_MOTION":14.19534885,"ECCENTRICITY":0.00010425,"INCLINATION":98.7689,"RA_OF_ASC_NODE":5.3761,"ARG_OF_PERICENTER":142.4562,"MEAN_ANOMALY":217.6687,"EPHEMERIS_TYPE":0,"CLASSIFICATION_TYPE":"U","NORAD_CAT_ID":43013,"ELEMENT_SET_NO":999,"REV_AT_EPOCH":42982,"BSTAR":7.4458373e-5,"MEAN_MOTION_DOT":1.13e-6,"MEAN_MOTION_DDOT":0},{"OBJECT_NAME":"GOES 17","OBJECT_ID":"2018-022A","EPOCH":"2026-03-05T22:07:46.231968","MEAN_MOTION":1.0027023,"ECCENTRICITY":0.00021616,"INCLINATION":0.672,"RA_OF_ASC_NODE":87.5233,"ARG_OF_PERICENTER":224.21,"MEAN_ANOMALY":94.3394,"EPHEMERIS_TYPE":0,"CLASSIFICATION_TYPE":"U","NORAD_CAT_ID":43226,"ELEMENT_SET_NO":999,"REV_AT_EPOCH":2938,"BSTAR":0,"MEAN_MOTION_DOT":-1.88e-6,"MEAN_MOTION_DDOT":0},{"OBJECT_NAME":"FENGYUN 2H","OBJECT_ID":"2018-050A","EPOCH":"2026-03-05T22:55:49.124352","MEAN_MOTION":1.00272706,"ECCENTRICITY":0.00017785,"INCLINATION":2.7647,"RA_OF_ASC_NODE":80.3409,"ARG_OF_PERICENTER":175.3884,"MEAN_ANOMALY":330.9787,"EPHEMERIS_TYPE":0,"CLASSIFICATION_TYPE":"U","NORAD_CAT_ID":43491,"ELEMENT_SET_NO":999,"REV_AT_EPOCH":2840,"BSTAR":0,"MEAN_MOTION_DOT":-1.32e-6,"MEAN_MOTION_DDOT":0}]
