METEOSAT-11 (MSG-4)     
1 40732U 15034A   26064.94164962  .00000056  00000+0  00000+0 0  9997
2 40732   2.9414  71.6713 0001804 270.8922 169.4631  1.00266583  6182
ELEKTRO-L 2             
1 41105U 15074A   26064.86555596 -.00000122  00000+0  00000+0 0  9999
2 41105   6.4347  71.7955 0003372 240.2032 148.6824  1.00270971 37470
INSAT-3DR               
1 41752U 16054A   26064.95438968 -.00000083  00000+0  00000+0 0  9995
2 41752   0.0513  95.7056 0013123 186.3264 299.2099  1.00272620 34784
HIMAWARI-9              
1 41836U 16064A   26064.96764973 -.00000281  00000+0  00000+0 0  9998
2 41836   0.0139 169.6721 0001220 205.4287 277.7232  1.00271922 34171
GOES 16                 
1 41866U 16071A   26064.91902953 -.00000097  00000+0  00000+0 0  9991
2 41866   0.1417  89.5611 0002431 221.0431  79.1868  1.00271882 34064
FENGYUN 4A              
1 41882U 16077A   26064.96426972 -.00000362  00000+0  00000+0 0  9997
2 41882   2.0601  81.3975 0007344 135.4318  57.6029  1.00278576 33898
CYGFM05                 
1 41884U 16078A   26064.84108380  .00027282  00000+0  43898-3 0  9992
2 41884  34.9571 222.5928 0007106 253.2636 106.7307 15.51950959512660
CYGFM04                 
1 41885U 16078B   26064.70620458  .00033317  00000+0  47322-3 0  9995
2 41885  34.9332 195.6941 0006087 285.4912  74.5139 15.55346622512847
CYGFM02                 
1 41886U 16078C   26064.67728574  .00057935  00000+0  75308-3 0  9997
2 41886  34.9415 192.8729 0007158 287.1456  72.8484 15.57615372512987
CYGFM01                 
1 41887U 16078D   26064.86935388  .00028684  00000+0  45417-3 0  9999
2 41887  34.9401 224.2133 0006769 245.3270 114.6748 15.52390972512618
CYGFM08                 
1 41888U 16078E   26064.72461393  .00031508  00000+0  47239-3 0  9998
2 41888  34.9431 207.0767 0008191 268.5441  91.4344 15.53865999512837
CYGFM07                 
1 41890U 16078G   26064.75716597  .00032445  00000+0  47436-3 0  9993
2 41890  34.9456 195.3351 0006681 288.6098  71.3900 15.54561714512865
CYGFM03                 
1 41891U 16078H   26064.72825965  .00032142  00000+0  46978-3 0  9995
2 41891  34.9409 197.5030 0005929 274.4225  85.5821 15.54576853512837
FENGYUN 3D              
1 43010U 17072A   26064.97139848  .00000272  00000+0  15053-3 0  9999
2 43010  99.0025  37.5867 0001738  20.4256 339.6989 14.19714242430345
NOAA 20 (JPSS-1)        
1 43013U 17073A   26064.95170850  .00000113  00000+0  74458-4 0  9998
2 43013  98.7689   5.3761 0001042 142.4562 217.6687 14.19534885429823
GOES 17                 
1 43226U 18022A   26064.92206287 -.00000188  00000+0  00000+0 0  9990
2 43226   0.6720  87.5233 0002161 224.2100  94.3394  1.00270230 29382
FENGYUN 2H              
1 43491U 18050A   26064.95542968 -.00000132  00000+0  00000+0 0  9996
2 43491   2.7647  80.3409 0001778 175.3884 330.9787  1.00272706 28408
